{
  "type": "FeatureCollection",
  "features": [
    {
      "type": "Feature",
      "properties": {
        "norad_id": 31307,
        "name": "GALAXY 17 (G-17)",
        "group": "intelsat",
        "lat": 2.510368892856645,
        "lon": 178.1932267299374,
        "alt_km": 35780.10940237079,
        "timestamp": "2025-12-21T11:31:42.509905+00:00",
        "meta_object_name": "GALAXY 17 (G-17)",
        "meta_object_id": "2007-016B",
        "meta_epoch": "2025-12-21T04:46:03.259776",
        "meta_mean_motion": 1.00270211,
        "meta_eccentricity": 0.0005336,
        "meta_inclination": 2.5198,
        "meta_ra_of_asc_node": 82.1905,
        "meta_arg_of_pericenter": 170.154,
        "meta_mean_anomaly": 184.2166,
        "meta_ephemeris_type": 0,
        "meta_classification_type": "U",
        "meta_norad_cat_id": 31307,
        "meta_element_set_no": 999,
        "meta_rev_at_epoch": 6801,
        "meta_bstar": 0,
        "meta_mean_motion_dot": -1.85e-06,
        "meta_mean_motion_ddot": 0,
        "tle_line1": "1 31307U 07016B   25355.19864884 -.00000185  00000+0  00000+0 0  9999",
        "tle_line2": "2 31307   2.5198  82.1905 0005336 170.1540 184.2166  1.00270211 68018"
      },
      "geometry": {
        "type": "Point",
        "coordinates": [
          178.1932267299374,
          2.510368892856645
        ]
      }
    },
    {
      "type": "Feature",
      "properties": {
        "norad_id": 31862,
        "name": "DIRECTV 10",
        "group": "intelsat",
        "lat": -0.00031624167951795697,
        "lon": 160.40979763258113,
        "alt_km": 35785.49443161866,
        "timestamp": "2025-12-21T11:31:42.509918+00:00",
        "meta_object_name": "DIRECTV 10",
        "meta_object_id": "2007-032A",
        "meta_epoch": "2025-12-20T21:18:05.647104",
        "meta_mean_motion": 1.00270377,
        "meta_eccentricity": 2.73e-05,
        "meta_inclination": 0.0073,
        "meta_ra_of_asc_node": 111.6707,
        "meta_arg_of_pericenter": 78.7977,
        "meta_mean_anomaly": 115.9664,
        "meta_ephemeris_type": 0,
        "meta_classification_type": "U",
        "meta_norad_cat_id": 31862,
        "meta_element_set_no": 999,
        "meta_rev_at_epoch": 4380,
        "meta_bstar": 0,
        "meta_mean_motion_dot": -8e-07,
        "meta_mean_motion_ddot": 0,
        "tle_line1": "1 31862U 07032A   25354.88756536 -.00000080  00000+0  00000+0 0  9996",
        "tle_line2": "2 31862   0.0073 111.6707 0000273  78.7977 115.9664  1.00270377 43806"
      },
      "geometry": {
        "type": "Point",
        "coordinates": [
          160.40979763258113,
          -0.00031624167951795697
        ]
      }
    },
    {
      "type": "Feature",
      "properties": {
        "norad_id": 32253,
        "name": "INTELSAT 11 (IS-11)",
        "group": "intelsat",
        "lat": 0.5413748922986684,
        "lon": 90.42306624109884,
        "alt_km": 36165.494113346576,
        "timestamp": "2025-12-21T11:31:42.509930+00:00",
        "meta_object_name": "INTELSAT 11 (IS-11)",
        "meta_object_id": "2007-044B",
        "meta_epoch": "2025-12-21T02:06:42.858720",
        "meta_mean_motion": 0.99052459,
        "meta_eccentricity": 0.0008532,
        "meta_inclination": 3.1006,
        "meta_ra_of_asc_node": 80.8847,
        "meta_arg_of_pericenter": 169.216,
        "meta_mean_anomaly": 60.4629,
        "meta_ephemeris_type": 0,
        "meta_classification_type": "U",
        "meta_norad_cat_id": 32253,
        "meta_element_set_no": 999,
        "meta_rev_at_epoch": 6668,
        "meta_bstar": 0,
        "meta_mean_motion_dot": -7.9e-07,
        "meta_mean_motion_ddot": 0,
        "tle_line1": "1 32253U 07044B   25355.08799605 -.00000079  00000+0  00000+0 0  9999",
        "tle_line2": "2 32253   3.1006  80.8847 0008532 169.2160  60.4629  0.99052459 66681"
      },
      "geometry": {
        "type": "Point",
        "coordinates": [
          90.42306624109884,
          0.5413748922986684
        ]
      }
    },
    {
      "type": "Feature",
      "properties": {
        "norad_id": 32388,
        "name": "HORIZONS-2",
        "group": "intelsat",
        "lat": 2.052604562989459,
        "lon": -170.60387568249672,
        "alt_km": 35785.17731795677,
        "timestamp": "2025-12-21T11:31:42.509943+00:00",
        "meta_object_name": "HORIZONS-2",
        "meta_object_id": "2007-063B",
        "meta_epoch": "2025-12-21T02:34:32.693376",
        "meta_mean_motion": 1.00271456,
        "meta_eccentricity": 0.0004597,
        "meta_inclination": 2.1421,
        "meta_ra_of_asc_node": 82.8714,
        "meta_arg_of_pericenter": 194.3466,
        "meta_mean_anomaly": 137.5666,
        "meta_ephemeris_type": 0,
        "meta_classification_type": "U",
        "meta_norad_cat_id": 32388,
        "meta_element_set_no": 999,
        "meta_rev_at_epoch": 6602,
        "meta_bstar": 0,
        "meta_mean_motion_dot": -2.32e-06,
        "meta_mean_motion_ddot": 0,
        "tle_line1": "1 32388U 07063B   25355.10732284 -.00000232  00000+0  00000+0 0  9993",
        "tle_line2": "2 32388   2.1421  82.8714 0004597 194.3466 137.5666  1.00271456 66028"
      },
      "geometry": {
        "type": "Point",
        "coordinates": [
          -170.60387568249672,
          2.052604562989459
        ]
      }
    },
    {
      "type": "Feature",
      "properties": {
        "norad_id": 32729,
        "name": "DIRECTV 11",
        "group": "intelsat",
        "lat": -0.008108737988300153,
        "lon": 164.00955764824272,
        "alt_km": 35789.99027750558,
        "timestamp": "2025-12-21T11:31:42.509955+00:00",
        "meta_object_name": "DIRECTV 11",
        "meta_object_id": "2008-013A",
        "meta_epoch": "2025-12-21T04:01:00.076800",
        "meta_mean_motion": 1.00259336,
        "meta_eccentricity": 2.44e-05,
        "meta_inclination": 0.0471,
        "meta_ra_of_asc_node": 197.144,
        "meta_arg_of_pericenter": 213.2633,
        "meta_mean_anomaly": 0.6368,
        "meta_ephemeris_type": 0,
        "meta_classification_type": "U",
        "meta_norad_cat_id": 32729,
        "meta_element_set_no": 999,
        "meta_rev_at_epoch": 4380,
        "meta_bstar": 0,
        "meta_mean_motion_dot": -1.01e-06,
        "meta_mean_motion_ddot": 0,
        "tle_line1": "1 32729U 08013A   25355.16736200 -.00000101  00000+0  00000+0 0  9991",
        "tle_line2": "2 32729   0.0471 197.1440 0000244 213.2633   0.6368  1.00259336 43800"
      },
      "geometry": {
        "type": "Point",
        "coordinates": [
          164.00955764824272,
          -0.008108737988300153
        ]
      }
    },
    {
      "type": "Feature",
      "properties": {
        "norad_id": 32951,
        "name": "GALAXY 18 (G-18)",
        "group": "intelsat",
        "lat": 0.03059378809143553,
        "lon": 140.18321542085798,
        "alt_km": 35794.78471887212,
        "timestamp": "2025-12-21T11:31:42.509967+00:00",
        "meta_object_name": "GALAXY 18 (G-18)",
        "meta_object_id": "2008-024A",
        "meta_epoch": "2025-12-21T04:32:38.608800",
        "meta_mean_motion": 1.00271174,
        "meta_eccentricity": 0.0002838,
        "meta_inclination": 0.0174,
        "meta_ra_of_asc_node": 59.6193,
        "meta_arg_of_pericenter": 215.9312,
        "meta_mean_anomaly": 119.6116,
        "meta_ephemeris_type": 0,
        "meta_classification_type": "U",
        "meta_norad_cat_id": 32951,
        "meta_element_set_no": 999,
        "meta_rev_at_epoch": 4406,
        "meta_bstar": 0,
        "meta_mean_motion_dot": 4.8e-07,
        "meta_mean_motion_ddot": 0,
        "tle_line1": "1 32951U 08024A   25355.18933575  .00000048  00000+0  00000+0 0  9995",
        "tle_line2": "2 32951   0.0174  59.6193 0002838 215.9312 119.6116  1.00271174 44063"
      },
      "geometry": {
        "type": "Point",
        "coordinates": [
          140.18321542085798,
          0.03059378809143553
        ]
      }
    },
    {
      "type": "Feature",
      "properties": {
        "norad_id": 33153,
        "name": "INTELSAT 25 (IS-25)",
        "group": "intelsat",
        "lat": 1.1349718358624634,
        "lon": -128.31210986746606,
        "alt_km": 35770.69367369782,
        "timestamp": "2025-12-21T11:31:42.509979+00:00",
        "meta_object_name": "INTELSAT 25 (IS-25)",
        "meta_object_id": "2008-034A",
        "meta_epoch": "2025-12-21T02:46:31.544832",
        "meta_mean_motion": 1.00269849,
        "meta_eccentricity": 0.0004814,
        "meta_inclination": 2.248,
        "meta_ra_of_asc_node": 82.5599,
        "meta_arg_of_pericenter": 188.3168,
        "meta_mean_anomaly": 189.1788,
        "meta_ephemeris_type": 0,
        "meta_classification_type": "U",
        "meta_norad_cat_id": 33153,
        "meta_element_set_no": 999,
        "meta_rev_at_epoch": 6391,
        "meta_bstar": 0,
        "meta_mean_motion_dot": -2.03e-06,
        "meta_mean_motion_ddot": 0,
        "tle_line1": "1 33153U 08034A   25355.11564288 -.00000203  00000+0  00000+0 0  9999",
        "tle_line2": "2 33153   2.2480  82.5599 0004814 188.3168 189.1788  1.00269849 63913"
      },
      "geometry": {
        "type": "Point",
        "coordinates": [
          -128.31210986746606,
          1.1349718358624634
        ]
      }
    }
  ]
}